{
  "type": "FeatureCollection",
  "features": [
    {
      "type": "Feature",
      "properties": {
        "norad_id": 47053,
        "name": "COSMOS 2251 DEB",
        "group": "cosmos-2251-debris",
        "lat": -45.18150806134988,
        "lon": 100.29031638908339,
        "alt_km": 1279.3157076932248,
        "timestamp": "2025-12-06T20:37:56.474379+00:00",
        "meta_object_name": "COSMOS 2251 DEB",
        "meta_object_id": "1993-036BXH",
        "meta_epoch": "2025-12-02T02:37:04.787616",
        "meta_mean_motion": 13.59615746,
        "meta_eccentricity": 0.03758539,
        "meta_inclination": 74.0601,
        "meta_ra_of_asc_node": 271.2609,
        "meta_arg_of_pericenter": 87.2254,
        "meta_mean_anomaly": 294.2026,
        "meta_ephemeris_type": 0,
        "meta_classification_type": "U",
        "meta_norad_cat_id": 47053,
        "meta_element_set_no": 999,
        "meta_rev_at_epoch": 28744,
        "meta_bstar": 0.0013831144,
        "meta_mean_motion_dot": 1.616e-05,
        "meta_mean_motion_ddot": 0,
        "tle_line1": "1 47053U 93036BXH 25336.10908319  .00001616  00000+0  13831-2 0  9991",
        "tle_line2": "2 47053  74.0601 271.2609 0375853  87.2254 294.2026 13.59615746287442"
      },
      "geometry": {
        "type": "Point",
        "coordinates": [
          100.29031638908339,
          -45.18150806134988
        ]
      }
    },
    {
      "type": "Feature",
      "properties": {
        "norad_id": 47059,
        "name": "COSMOS 2251 DEB",
        "group": "cosmos-2251-debris",
        "lat": 73.97273190325508,
        "lon": -21.920032320405483,
        "alt_km": 515.6668121592202,
        "timestamp": "2025-12-06T20:37:56.474390+00:00",
        "meta_object_name": "COSMOS 2251 DEB",
        "meta_object_id": "1993-036BXP",
        "meta_epoch": "2025-12-06T03:03:53.254944",
        "meta_mean_motion": 15.11824975,
        "meta_eccentricity": 0.0012241,
        "meta_inclination": 73.9837,
        "meta_ra_of_asc_node": 249.1614,
        "meta_arg_of_pericenter": 60.0281,
        "meta_mean_anomaly": 7.7142,
        "meta_ephemeris_type": 0,
        "meta_classification_type": "U",
        "meta_norad_cat_id": 47059,
        "meta_element_set_no": 999,
        "meta_rev_at_epoch": 8205,
        "meta_bstar": 0.0045995756,
        "meta_mean_motion_dot": 0.00079589,
        "meta_mean_motion_ddot": 0,
        "tle_line1": "1 47059U 93036BXP 25340.12769971  .00079589  00000+0  45996-2 0  9994",
        "tle_line2": "2 47059  73.9837 249.1614 0012241  60.0281   7.7142 15.11824975 82057"
      },
      "geometry": {
        "type": "Point",
        "coordinates": [
          -21.920032320405483,
          73.97273190325508
        ]
      }
    },
    {
      "type": "Feature",
      "properties": {
        "norad_id": 47062,
        "name": "COSMOS 2251 DEB",
        "group": "cosmos-2251-debris",
        "lat": -37.10506872309575,
        "lon": -79.6626765320123,
        "alt_km": 760.7513050670796,
        "timestamp": "2025-12-06T20:37:56.474401+00:00",
        "meta_object_name": "COSMOS 2251 DEB",
        "meta_object_id": "1993-036BXS",
        "meta_epoch": "2025-12-06T01:11:42.384768",
        "meta_mean_motion": 13.71902972,
        "meta_eccentricity": 0.0323491,
        "meta_inclination": 74.0841,
        "meta_ra_of_asc_node": 89.2078,
        "meta_arg_of_pericenter": 216.3558,
        "meta_mean_anomaly": 323.7676,
        "meta_ephemeris_type": 0,
        "meta_classification_type": "U",
        "meta_norad_cat_id": 47062,
        "meta_element_set_no": 999,
        "meta_rev_at_epoch": 55510,
        "meta_bstar": 0.0032041469,
        "meta_mean_motion_dot": 4.197e-05,
        "meta_mean_motion_ddot": 0,
        "tle_line1": "1 47062U 93036BXS 25340.04979612  .00004197  00000+0  32041-2 0  9994",
        "tle_line2": "2 47062  74.0841  89.2078 0323491 216.3558 323.7676 13.71902972555102"
      },
      "geometry": {
        "type": "Point",
        "coordinates": [
          -79.6626765320123,
          -37.10506872309575
        ]
      }
    },
    {
      "type": "Feature",
      "properties": {
        "norad_id": 47068,
        "name": "COSMOS 2251 DEB",
        "group": "cosmos-2251-debris",
        "lat": 56.65290030286998,
        "lon": -119.61869667921216,
        "alt_km": 716.06679032584,
        "timestamp": "2025-12-06T20:37:56.474411+00:00",
        "meta_object_name": "COSMOS 2251 DEB",
        "meta_object_id": "1993-036BXY",
        "meta_epoch": "2025-12-05T22:52:31.528416",
        "meta_mean_motion": 14.53079346,
        "meta_eccentricity": 0.00184568,
        "meta_inclination": 74.0241,
        "meta_ra_of_asc_node": 216.2856,
        "meta_arg_of_pericenter": 303.5943,
        "meta_mean_anomaly": 56.3457,
        "meta_ephemeris_type": 0,
        "meta_classification_type": "U",
        "meta_norad_cat_id": 47068,
        "meta_element_set_no": 999,
        "meta_rev_at_epoch": 61658,
        "meta_bstar": 0.0015277315,
        "meta_mean_motion_dot": 6.306e-05,
        "meta_mean_motion_ddot": 0,
        "tle_line1": "1 47068U 93036BXY 25339.95314269  .00006306  00000+0  15277-2 0  9995",
        "tle_line2": "2 47068  74.0241 216.2856 0018456 303.5943  56.3457 14.53079346616584"
      },
      "geometry": {
        "type": "Point",
        "coordinates": [
          -119.61869667921216,
          56.65290030286998
        ]
      }
    },
    {
      "type": "Feature",
      "properties": {
        "norad_id": 47073,
        "name": "COSMOS 2251 DEB",
        "group": "cosmos-2251-debris",
        "lat": 13.205286154168038,
        "lon": 28.237844603541543,
        "alt_km": 867.0125442464505,
        "timestamp": "2025-12-06T20:37:56.474421+00:00",
        "meta_object_name": "COSMOS 2251 DEB",
        "meta_object_id": "1993-036BYD",
        "meta_epoch": "2025-11-28T23:48:38.837952",
        "meta_mean_motion": 14.04684181,
        "meta_eccentricity": 0.01626495,
        "meta_inclination": 74.0833,
        "meta_ra_of_asc_node": 225.7586,
        "meta_arg_of_pericenter": 267.1836,
        "meta_mean_anomaly": 91.0675,
        "meta_ephemeris_type": 0,
        "meta_classification_type": "U",
        "meta_norad_cat_id": 47073,
        "meta_element_set_no": 999,
        "meta_rev_at_epoch": 60168,
        "meta_bstar": 0.0003803633,
        "meta_mean_motion_dot": 6.6e-06,
        "meta_mean_motion_ddot": 0,
        "tle_line1": "1 47073U 93036BYD 25332.99211618  .00000660  00000+0  38036-3 0  9998",
        "tle_line2": "2 47073  74.0833 225.7586 0162649 267.1836  91.0675 14.04684181601680"
      },
      "geometry": {
        "type": "Point",
        "coordinates": [
          28.237844603541543,
          13.205286154168038
        ]
      }
    },
    {
      "type": "Feature",
      "properties": {
        "norad_id": 47074,
        "name": "COSMOS 2251 DEB",
        "group": "cosmos-2251-debris",
        "lat": 27.810517000374283,
        "lon": -31.883324546472274,
        "alt_km": 692.8963266782457,
        "timestamp": "2025-12-06T20:37:56.474435+00:00",
        "meta_object_name": "COSMOS 2251 DEB",
        "meta_object_id": "1993-036BYE",
        "meta_epoch": "2025-12-03T18:02:52.457856",
        "meta_mean_motion": 14.35498744,
        "meta_eccentricity": 0.01434773,
        "meta_inclination": 74.091,
        "meta_ra_of_asc_node": 325.1457,
        "meta_arg_of_pericenter": 355.2449,
        "meta_mean_anomaly": 179.085,
        "meta_ephemeris_type": 0,
        "meta_classification_type": "U",
        "meta_norad_cat_id": 47074,
        "meta_element_set_no": 999,
        "meta_rev_at_epoch": 2553,
        "meta_bstar": 0.0029812178,
        "meta_mean_motion_dot": 9.625e-05,
        "meta_mean_motion_ddot": 0,
        "tle_line1": "1 47074U 93036BYE 25337.75199604  .00009625  00000+0  29812-2 0  9999",
        "tle_line2": "2 47074  74.0910 325.1457 0143477 355.2449 179.0850 14.35498744 25534"
      },
      "geometry": {
        "type": "Point",
        "coordinates": [
          -31.883324546472274,
          27.810517000374283
        ]
      }
    },
    {
      "type": "Feature",
      "properties": {
        "norad_id": 47116,
        "name": "COSMOS 2251 DEB",
        "group": "cosmos-2251-debris",
        "lat": -6.049565917126707,
        "lon": -109.09070145151321,
        "alt_km": 562.5059572513337,
        "timestamp": "2025-12-06T20:37:56.474446+00:00",
        "meta_object_name": "COSMOS 2251 DEB",
        "meta_object_id": "1993-036BYJ",
        "meta_epoch": "2025-11-28T02:40:22.126944",
        "meta_mean_motion": 14.97052334,
        "meta_eccentricity": 0.00224176,
        "meta_inclination": 74.0247,
        "meta_ra_of_asc_node": 270.3586,
        "meta_arg_of_pericenter": 5.4926,
        "meta_mean_anomaly": 12.2387,
        "meta_ephemeris_type": 0,
        "meta_classification_type": "U",
        "meta_norad_cat_id": 47116,
        "meta_element_set_no": 999,
        "meta_rev_at_epoch": 59292,
        "meta_bstar": 0.0024991708,
        "meta_mean_motion_dot": 0.00029033,
        "meta_mean_motion_ddot": 0,
        "tle_line1": "1 47116U 93036BYJ 25332.11136721  .00029033  00000+0  24992-2 0  9991",
        "tle_line2": "2 47116  74.0247 270.3586 0022417   5.4926  12.2387 14.97052334592926"
      },
      "geometry": {
        "type": "Point",
        "coordinates": [
          -109.09070145151321,
          -6.049565917126707
        ]
      }
    }
  ]
}